{
    "links": {
        "self": "http://www.neowsapp.com/rest/v1/neo/3375773?api_key=iIulBulltgU6a56xZRHN4H3l9WmuAYTsLGpBGhQ2"
    },
    "id": "3375773",
    "neo_reference_id": "3375773",
    "name": "(2007 HD84)",
    "designation": "2007 HD84",
    "nasa_jpl_url": "http://ssd.jpl.nasa.gov/sbdb.cgi?sstr=3375773",
    "absolute_magnitude_h": 23.5,
    "estimated_diameter": {
        "kilometers": {
            "estimated_diameter_min": 0.0530340723,
            "estimated_diameter_max": 0.1185877909
        },
        "meters": {
            "estimated_diameter_min": 53.0340723319,
            "estimated_diameter_max": 118.5877908577
        },
        "miles": {
            "estimated_diameter_min": 0.0329538346,
            "estimated_diameter_max": 0.0736870142
        },
        "feet": {
            "estimated_diameter_min": 173.9963058693,
            "estimated_diameter_max": 389.0675677576
        }
    },
    "is_potentially_hazardous_asteroid": false,
    "close_approach_data": [
        {
            "close_approach_date": "2007-05-10",
            "close_approach_date_full": "2007-May-10 21:58",
            "epoch_date_close_approach": 1178834280000,
            "relative_velocity": {
                "kilometers_per_second": "5.8817176561",
                "kilometers_per_hour": "21174.1835619612",
                "miles_per_hour": "13156.8142249309"
            },
            "miss_distance": {
                "astronomical": "0.1303421094",
                "lunar": "50.7030805566",
                "kilometers": "19498901.937546978",
                "miles": "12116055.8350171764"
            },
            "orbiting_body": "Earth"
        }
    ],
    "orbital_data": {
        "orbit_id": "8",
        "orbit_determination_date": "2017-04-06 09:06:28",
        "first_observation_date": "2007-04-26",
        "last_observation_date": "2007-05-21",
        "data_arc_in_days": 25,
        "observations_used": 40,
        "orbit_uncertainty": "8",
        "minimum_orbit_intersection": ".127428",
        "jupiter_tisserand_invariant": "3.269",
        "epoch_osculation": "2454221.5",
        "eccentricity": ".5385235903942913",
        "semi_major_axis": "2.46172966200739",
        "inclination": "4.677345548496922",
        "ascending_node_longitude": "50.97818946362439",
        "orbital_period": "1410.778929784465",
        "perihelion_distance": "1.136030165843045",
        "perihelion_argument": "173.5533287920892",
        "aphelion_distance": "3.787429158171735",
        "perihelion_time": "2454227.772183032554",
        "mean_anomaly": "358.3994757477244",
        "mean_motion": ".2551781802234598",
        "equinox": "J2000",
        "orbit_class": {
            "orbit_class_type": "AMO",
            "orbit_class_description": "Near-Earth asteroid orbits similar to that of 1221 Amor",
            "orbit_class_range": "1.017 AU < q (perihelion) < 1.3 AU"
        }
    },
    "is_sentry_object": false
}